{"type":"FeatureCollection","features":[{"type":"Feature","geometry":{"type":"Polygon","coordinates":[[[29.545927,-24.265305],[29.468347,-24.796386],[29.644579,-25.292232],[30.45562,-25.096135],[30.563899,-24.740828],[30.285617,-24.385759],[29.8583,-24.244062],[29.545927,-24.265305]]]},"properties":{"Burgersfort":""},"id":0},{"type":"Feature","geometry":{"type":"Polygon","coordinates":[[[31.036386,-24.571998],[30.993073,-24.730355],[31.023589,-24.876009],[31.133841,-24.851001],[31.036386,-24.571998]]]},"properties":{"Bushbuckridge":""},"id":1},{"type":"Feature","geometry":{"type":"Polygon","coordinates":[[[28.44248,-25.774532],[28.470009,-25.782928],[28.500281,-25.799888],[28.661396,-25.803824],[28.700077,-25.811395],[28.703104,-25.805641],[28.658033,-25.795648],[28.504301,-25.792183],[28.472672,-25.773498],[28.44248,-25.774532]]]},"properties":{"N4 Donkerhoek":""},"id":2},{"type":"Feature","geometry":{"type":"Polygon","coordinates":[[[28.308281,-25.221507],[28.095484,-25.215963],[28.022623,-25.297255],[28.039987,-25.368034],[27.981159,-25.348006],[27.919197,-25.40707],[27.933408,-25.513826],[27.958989,-25.62305],[27.966379,-25.656205],[28.064722,-25.651593],[28.17614,-25.638269],[28.226164,-25.630581],[28.282442,-25.639294],[28.304611,-25.45825],[28.308281,-25.221507]]]},"properties":{"Soshanguve":""},"id":3},{"type":"Feature","geometry":{"type":"Polygon","coordinates":[[[27.96072,-26.20936],[27.854692,-26.171672],[27.815923,-26.184587],[27.761587,-26.225169],[27.74514,-26.286015],[27.710776,-26.324982],[27.630007,-26.347619],[27.569796,-26.385514],[27.504006,-26.423395],[27.444678,-26.438123],[27.383881,-26.478354],[27.342468,-26.503589],[27.264636,-26.561662],[27.221755,-26.6029],[27.183867,-26.649372],[27.144217,-26.680606],[27.109853,-26.705535],[27.12542,-26.709732],[27.212063,-26.64491],[27.252888,-26.595021],[27.405241,-26.500749],[27.558589,-26.430763],[27.65655,-26.374253],[27.828155,-26.380155],[27.907455,-26.384365],[27.958958,-26.316725],[27.974819,-26.248519],[27.96072,-26.20936]]]},"properties":{"Soweto":""},"id":4},{"type":"Feature","geometry":{"type":"Polygon","coordinates":[[[28.728727,-24.509909],[28.718412,-24.518693],[28.71299,-24.525611],[28.718677,-24.531928],[28.725686,-24.537943],[28.734414,-24.540048],[28.741687,-24.534695],[28.744861,-24.525251],[28.746333,-24.518096],[28.738795,-24.514727],[28.728727,-24.509909]]]},"properties":{"Naboom":""},"id":5},{"type":"Feature","geometry":{"type":"Polygon","coordinates":[[[18.651418,-33.96836],[18.630885,-33.962127],[18.623744,-33.995534],[18.645759,-34.003032],[18.666705,-34.014642],[18.686784,-34.023272],[18.715908,-34.021674],[18.727431,-33.991015],[18.707917,-33.96836],[18.651418,-33.96836]]]},"properties":{}},{"type":"Feature","properties":{},"geometry":{"type":"Polygon","coordinates":[[[18.735183,-33.836242],[18.735807,-33.843498],[18.720295,-33.850976],[18.726625,-33.869557],[18.746633,-33.86023],[18.754684,-33.851531],[18.755333,-33.843478],[18.753082,-33.831271],[18.735183,-33.836242]]]}},{"type":"Feature","properties":{},"geometry":{"type":"Polygon","coordinates":[[[18.583533,-33.921169],[18.54397,-33.915263],[18.539682,-33.916803],[18.522992,-33.942158],[18.518222,-33.957893],[18.49683,-33.960643],[18.495052,-33.971139],[18.520254,-33.970204],[18.525934,-33.984318],[18.477328,-34.0141],[18.488688,-34.079893],[18.548881,-34.064589],[18.565873,-34.087799],[18.590615,-34.079404],[18.70866,-34.073725],[18.768463,-34.082061],[18.778566,-34.069846],[18.787184,-34.058779],[18.754315,-34.045313],[18.726532,-34.038931],[18.70419,-34.03102],[18.671338,-34.018146],[18.643664,-34.002902],[18.599743,-33.98884],[18.586854,-33.975728],[18.58475,-33.968317],[18.590137,-33.96134],[18.596148,-33.951525],[18.594693,-33.946854],[18.590137,-33.940555],[18.592986,-33.927803],[18.603632,-33.928206],[18.613659,-33.925897],[18.611981,-33.91567],[18.598154,-33.91644],[18.583533,-33.921169]]]}},{"type":"Feature","properties":{},"geometry":{"type":"Polygon","coordinates":[[[18.544906,-33.802689],[18.533049,-33.82079],[18.540229,-33.831511],[18.55304,-33.805731],[18.544906,-33.802689]]]}},{"type":"Feature","properties":{},"geometry":{"type":"Polygon","coordinates":[[[18.832793,-33.919904],[18.833777,-33.923201],[18.840539,-33.928862],[18.847465,-33.928862],[18.856584,-33.922614],[18.858158,-33.917944],[18.859677,-33.913543],[18.859659,-33.905146],[18.859633,-33.897236],[18.856938,-33.896968],[18.850615,-33.897053],[18.843992,-33.898616],[18.840776,-33.900937],[18.84498,-33.911989],[18.832793,-33.919904]]]}},{"type":"Feature","properties":{},"geometry":{"type":"Polygon","coordinates":[[[18.899983,-34.118525],[18.89966,-34.127884],[18.907519,-34.13127],[18.921731,-34.133632],[18.929213,-34.124274],[18.930546,-34.113615],[18.91877,-34.108943],[18.905269,-34.110402],[18.899983,-34.118525]]]}}]}